{"type": "FeatureCollection", "features": [ {"type": "Feature", "properties": {"norad_id": 66839, "name": "STARLINK-35717", "group": "last-30-days", "lat": 50.57583887424131, "lon": -40.08052695209148, "alt_km": 405.8946283094165, "timestamp": "2025-12-24T11:32:58.719486+00:00", "meta": {"OBJECT_NAME": "STARLINK-35717", "OBJECT_ID": "2025-280U", "EPOCH": "2025-12-24T03:16:59.220192", "MEAN_MOTION": 15.52542001, "ECCENTRICITY": 0.0003341, "INCLINATION": 70.0008, "RA_OF_ASC_NODE": 167.1594, "ARG_OF_PERICENTER": 275.8209, "MEAN_ANOMALY": 84.2596, "EPHEMERIS_TYPE": 0, "CLASSIFICATION_TYPE": "U", "NORAD_CAT_ID": 66839, "ELEMENT_SET_NO": 999, "REV_AT_EPOCH": 470, "BSTAR": 0.0013471, "MEAN_MOTION_DOT": 0.00083653, "MEAN_MOTION_DDOT": 0}, "tle": {"line1": "1 66839U 25280U   25358.13679653  .00083653  00000+0  13471-2 0  9994", "line2": "2 66839  70.0008 167.1594 0003341 275.8209  84.2596 15.52542001  4706"}}, "geometry": {"type": "Point", "coordinates": [-40.08052695209148, 50.57583887424131]}}, {"type": "Feature", "properties": {"norad_id": 66840, "name": "STARLINK-35837", "group": "last-30-days", "lat": 47.2431047270929, "lon": -36.986008582846054, "alt_km": 406.08557529079735, "timestamp": "2025-12-24T11:32:58.719496+00:00", "meta": {"OBJECT_NAME": "STARLINK-35837", "OBJECT_ID": "2025-280V", "EPOCH": "2025-12-24T01:43:11.769600", "MEAN_MOTION": 15.52518724, "ECCENTRICITY": 0.0003409, "INCLINATION": 70.0006, "RA_OF_ASC_NODE": 167.3337, "ARG_OF_PERICENTER": 265.0447, "MEAN_ANOMALY": 95.0351, "EPHEMERIS_TYPE": 0, "CLASSIFICATION_TYPE": "U", "NORAD_CAT_ID": 66840, "ELEMENT_SET_NO": 999, "REV_AT_EPOCH": 469, "BSTAR": 0.0013612, "MEAN_MOTION_DOT": 0.00084471, "MEAN_MOTION_DDOT": 0}, "tle": {"line1": "1 66840U 25280V   25358.07166400  .00084471  00000+0  13612-2 0  9996", "line2": "2 66840  70.0006 167.3337 0003409 265.0447  95.0351 15.52518724  4695"}}, "geometry": {"type": "Point", "coordinates": [-36.986008582846054, 47.2431047270929]}}, {"type": "Feature", "properties": {"norad_id": 66841, "name": "STARLINK-35715", "group": "last-30-days", "lat": 45.64520001817213, "lon": -35.66033186094495, "alt_km": 406.3976270660196, "timestamp": "2025-12-24T11:32:58.719506+00:00", "meta": {"OBJECT_NAME": "STARLINK-35715", "OBJECT_ID": "2025-280W", "EPOCH": "2025-12-24T01:42:44.055072", "MEAN_MOTION": 15.5256583, "ECCENTRICITY": 0.0003115, "INCLINATION": 70.0007, "RA_OF_ASC_NODE": 167.3327, "ARG_OF_PERICENTER": 276.7194, "MEAN_ANOMALY": 83.3638, "EPHEMERIS_TYPE": 0, "CLASSIFICATION_TYPE": "U", "NORAD_CAT_ID": 66841, "ELEMENT_SET_NO": 999, "REV_AT_EPOCH": 469, "BSTAR": 0.00044564, "MEAN_MOTION_DOT": 0.00027389, "MEAN_MOTION_DDOT": 0}, "tle": {"line1": "1 66841U 25280W   25358.07134323  .00027389  00000+0  44564-3 0  9992", "line2": "2 66841  70.0007 167.3327 0003115 276.7194  83.3638 15.52565830  4696"}}, "geometry": {"type": "Point", "coordinates": [-35.66033186094495, 45.64520001817213]}}, {"type": "Feature", "properties": {"norad_id": 66842, "name": "STARLINK-35769", "group": "last-30-days", "lat": 43.92300802404899, "lon": -34.32715159479752, "alt_km": 406.59724003518386, "timestamp": "2025-12-24T11:32:58.719516+00:00", "meta": {"OBJECT_NAME": "STARLINK-35769", "OBJECT_ID": "2025-280X", "EPOCH": "2025-12-24T01:42:13.627584", "MEAN_MOTION": 15.52546941, "ECCENTRICITY": 0.0002976, "INCLINATION": 70.0006, "RA_OF_ASC_NODE": 167.331, "ARG_OF_PERICENTER": 280.6694, "MEAN_ANOMALY": 79.4157, "EPHEMERIS_TYPE": 0, "CLASSIFICATION_TYPE": "U", "NORAD_CAT_ID": 66842, "ELEMENT_SET_NO": 999, "REV_AT_EPOCH": 469, "BSTAR": 0.00096017, "MEAN_MOTION_DOT": 0.00059404, "MEAN_MOTION_DDOT": 0}, "tle": {"line1": "1 66842U 25280X   25358.07099106  .00059404  00000+0  96017-3 0  9995", "line2": "2 66842  70.0006 167.3310 0002976 280.6694  79.4157 15.52546941  4695"}}, "geometry": {"type": "Point", "coordinates": [-34.32715159479752, 43.92300802404899]}}, {"type": "Feature", "properties": {"norad_id": 66843, "name": "STARLINK-35997", "group": "last-30-days", "lat": 40.5677441399841, "lon": -31.966212274057447, "alt_km": 407.10695885828954, "timestamp": "2025-12-24T11:32:58.719529+00:00", "meta": {"OBJECT_NAME": "STARLINK-35997", "OBJECT_ID": "2025-280Y", "EPOCH": "2025-12-24T01:41:14.635392", "MEAN_MOTION": 15.52533265, "ECCENTRICITY": 0.0003288, "INCLINATION": 70.0008, "RA_OF_ASC_NODE": 167.3275, "ARG_OF_PERICENTER": 274.3258, "MEAN_ANOMALY": 85.7553, "EPHEMERIS_TYPE": 0, "CLASSIFICATION_TYPE": "U", "NORAD_CAT_ID": 66843, "ELEMENT_SET_NO": 999, "REV_AT_EPOCH": 469, "BSTAR": 0.00083358, "MEAN_MOTION_DOT": 0.00051475, "MEAN_MOTION_DDOT": 0}, "tle": {"line1": "1 66843U 25280Y   25358.07030828  .00051475  00000+0  83358-3 0  9996", "line2": "2 66843  70.0008 167.3275 0003288 274.3258  85.7553 15.52533265  4696"}}, "geometry": {"type": "Point", "coordinates": [-31.966212274057447, 40.5677441399841]}}, {"type": "Feature", "properties": {"norad_id": 66844, "name": "STARLINK-36073", "group": "last-30-days", "lat": 42.26948182160625, "lon": -33.127735253844264, "alt_km": 406.9574597803803, "timestamp": "2025-12-24T11:32:58.719541+00:00", "meta": {"OBJECT_NAME": "STARLINK-36073", "OBJECT_ID": "2025-280Z", "EPOCH": "2025-12-24T03:14:31.071840", "MEAN_MOTION": 15.52538414, "ECCENTRICITY": 0.0003324, "INCLINATION": 70.0008, "RA_OF_ASC_NODE": 167.1529, "ARG_OF_PERICENTER": 277.6432, "MEAN_ANOMALY": 82.4377, "EPHEMERIS_TYPE": 0, "CLASSIFICATION_TYPE": "U", "NORAD_CAT_ID": 66844, "ELEMENT_SET_NO": 999, "REV_AT_EPOCH": 467, "BSTAR": 0.0012031, "MEAN_MOTION_DOT": 0.00074601, "MEAN_MOTION_DDOT": 0}, "tle": {"line1": "1 66844U 25280Z   25358.13508185  .00074601  00000+0  12031-2 0  9995", "line2": "2 66844  70.0008 167.1529 0003324 277.6432  82.4377 15.52538414  4675"}}, "geometry": {"type": "Point", "coordinates": [-33.127735253844264, 42.26948182160625]}}, {"type": "Feature", "properties": {"norad_id": 66845, "name": "STARLINK-36068", "group": "last-30-days", "lat": 35.35989750292966, "lon": -28.78258226166309, "alt_km": 407.71328665176407, "timestamp": "2025-12-24T11:32:58.719551+00:00", "meta": {"OBJECT_NAME": "STARLINK-36068", "OBJECT_ID": "2025-280AA", "EPOCH": "2025-12-24T01:39:45.478368", "MEAN_MOTION": 15.52545504, "ECCENTRICITY": 0.0003374, "INCLINATION": 70.0008, "RA_OF_ASC_NODE": 167.3235, "ARG_OF_PERICENTER": 271.9294, "MEAN_ANOMALY": 88.1506, "EPHEMERIS_TYPE": 0, "CLASSIFICATION_TYPE": "U", "NORAD_CAT_ID": 66845, "ELEMENT_SET_NO": 999, "REV_AT_EPOCH": 469, "BSTAR": 0.00072318, "MEAN_MOTION_DOT": 0.00044616, "MEAN_MOTION_DDOT": 0}, "tle": {"line1": "1 66845U 25280AA  25358.06927637  .00044616  00000+0  72318-3 0  9993", "line2": "2 66845  70.0008 167.3235 0003374 271.9294  88.1506 15.52545504  4697"}}, "geometry": {"type": "Point", "coordinates": [-28.78258226166309, 35.35989750292966]}}, {"type": "Feature", "properties": {"norad_id": 66846, "name": "STARLINK-36055", "group": "last-30-days", "lat": 38.814745310761, "lon": -30.83716406298886, "alt_km": 407.2137991930522, "timestamp": "2025-12-24T11:32:58.719561+00:00", "meta": {"OBJECT_NAME": "STARLINK-36055", "OBJECT_ID": "2025-280AB", "EPOCH": "2025-12-24T01:40:44.785056", "MEAN_MOTION": 15.52546147, "ECCENTRICITY": 0.00033, "INCLINATION": 70.0007, "RA_OF_ASC_NODE": 167.3261, "ARG_OF_PERICENTER": 272.3415, "MEAN_ANOMALY": 87.7394, "EPHEMERIS_TYPE": 0, "CLASSIFICATION_TYPE": "U", "NORAD_CAT_ID": 66846, "ELEMENT_SET_NO": 999, "REV_AT_EPOCH": 469, "BSTAR": 0.0010223, "MEAN_MOTION_DOT": 0.00063288, "MEAN_MOTION_DDOT": 0}, "tle": {"line1": "1 66846U 25280AB  25358.06996279  .00063288  00000+0  10223-2 0  9994", "line2": "2 66846  70.0007 167.3261 0003300 272.3415  87.7394 15.52546147  4699"}}, "geometry": {"type": "Point", "coordinates": [-30.83716406298886, 38.814745310761]}}, {"type": "Feature", "properties": {"norad_id": 66847, "name": "STARLINK-36061", "group": "last-30-days", "lat": 37.096628580835514, "lon": -29.789240033419922, "alt_km": 407.46009838068767, "timestamp": "2025-12-24T11:32:58.719573+00:00", "meta": {"OBJECT_NAME": "STARLINK-36061", "OBJECT_ID": "2025-280AC", "EPOCH": "2025-12-24T01:40:15.117024", "MEAN_MOTION": 15.52544255, "ECCENTRICITY": 0.0003415, "INCLINATION": 70.0008, "RA_OF_ASC_NODE": 167.3248, "ARG_OF_PERICENTER": 270.5388, "MEAN_ANOMALY": 89.5408, "EPHEMERIS_TYPE": 0, "CLASSIFICATION_TYPE": "U", "NORAD_CAT_ID": 66847, "ELEMENT_SET_NO": 999, "REV_AT_EPOCH": 469, "BSTAR": 0.00082509, "MEAN_MOTION_DOT": 0.00050966, "MEAN_MOTION_DDOT": 0}, "tle": {"line1": "1 66847U 25280AC  25358.06961941  .00050966  00000+0  82509-3 0  9999", "line2": "2 66847  70.0008 167.3248 0003415 270.5388  89.5408 15.52544255  4696"}}, "geometry": {"type": "Point", "coordinates": [-29.789240033419922, 37.096628580835514]}}, {"type": "Feature", "properties": {"norad_id": 66848, "name": "STARLINK-36091", "group": "last-30-days", "lat": -41.965047924335984, "lon": -54.14308918400986, "alt_km": 397.0942871072639, "timestamp": "2025-12-24T11:32:58.719584+00:00", "meta": {"OBJECT_NAME": "STARLINK-36091", "OBJECT_ID": "2025-281A", "EPOCH": "2025-12-24T04:00:01.998720", "MEAN_MOTION": 15.58957196, "ECCENTRICITY": 0.0001274, "INCLINATION": 43, "RA_OF_ASC_NODE": 52.9056, "ARG_OF_PERICENTER": 268.0187, "MEAN_ANOMALY": 24.0928, "EPHEMERIS_TYPE": 0, "CLASSIFICATION_TYPE": "U", "NORAD_CAT_ID": 66848, "ELEMENT_SET_NO": 999, "REV_AT_EPOCH": 322, "BSTAR": -0.028425, "MEAN_MOTION_DOT": -0.01991991, "MEAN_MOTION_DDOT": 0}, "tle": {"line1": "1 66848U 25281A   25358.16668980 -.01991991  00000+0 -28425-1 0  9999", "line2": "2 66848  43.0000  52.9056 0001274 268.0187  24.0928 15.58957196  3222"}}, "geometry": {"type": "Point", "coordinates": [-54.14308918400986, -41.965047924335984]}}]}